[{"OBJECT_NAME":"COSMOS 2598 (RODNIK-S 23)","OBJECT_ID":"2025-273B","EPOCH":"2026-03-09T23:00:51.944256","MEAN_MOTION":12.42915673,"ECCENTRICITY":0.00110403,"INCLINATION":82.5002,"RA_OF_ASC_NODE":232.2095,"ARG_OF_PERICENTER":47.8874,"MEAN_ANOMALY":312.3142,"EPHEMERIS_TYPE":0,"CLASSIFICATION_TYPE":"U","NORAD_CAT_ID":66648,"ELEMENT_SET_NO":999,"REV_AT_EPOCH":1297,"BSTAR":0.00011619119,"MEAN_MOTION_DOT":2.6e-7,"MEAN_MOTION_DDOT":0},{"OBJECT_NAME":"COSMOS 1660","OBJECT_ID":"1985-047A","EPOCH":"2026-03-09T21:21:53.034624","MEAN_MOTION":12.40797359,"ECCENTRICITY":0.00277962,"INCLINATION":73.6272,"RA_OF_ASC_NODE":318.2731,"ARG_OF_PERICENTER":211.0425,"MEAN_ANOMALY":225.7058,"EPHEMERIS_TYPE":0,"CLASSIFICATION_TYPE":"U","NORAD_CAT_ID":15821,"ELEMENT_SET_NO":999,"REV_AT_EPOCH":84516,"BSTAR":0.00010668792,"MEAN_MOTION_DOT":-3.0e-8,"MEAN_MOTION_DDOT":0}]
